start=new Date('2021-09-02T00:00:00.000Z').valueOf();
sats=[{"GP_ID":"183927674","BSTAR":"0.00011934000000","MEAN_ELEMENT_THEORY":"SGP4","COUNTRY_CODE":"US","FILE":"3107096","REF_FRAME":"TEME","MEAN_MOTION_DOT":"0.00001496","LAUNCH_DATE":"2021-03-04","MEAN_ANOMALY":"274.5227","RA_OF_ASC_NODE":"68.4006","PERIAPSIS":"545.674","NORAD_CAT_ID":"47774","OBJECT_ID":"2021-017BE","DECAY_DATE":null,"EPHEMERIS_TYPE":"0","TLE_LINE2":"2 47774  53.0553  68.4006 0002274  85.6022 274.5227 15.06388652 28917","ARG_OF_PERICENTER":"85.6022","CLASSIFICATION_TYPE":"U","INCLINATION":"53.0553","TIME_SYSTEM":"UTC","TLE_LINE1":"1 47774U 21017BE  21244.76657640  .00001496  00000-0  11934-3 0  9995","RCS_SIZE":"LARGE","MEAN_MOTION_DDOT":"0.0000000000000","OBJECT_NAME":"STARLINK-2197","SITE":"AFETR","CENTER_NAME":"EARTH","ELEMENT_SET_NO":"999","REV_AT_EPOCH":"2891","MEAN_MOTION":"15.06388652","OBJECT_TYPE":"PAYLOAD","PERIOD":"95.593","ECCENTRICITY":"0.00022740","EPOCH":"2021-09-01T18:23:52.200960","SEMIMAJOR_AXIS":"6925.383","APOAPSIS":"548.823"},{"MEAN_ANOMALY":"266.7937","RA_OF_ASC_NODE":"68.3675","PERIAPSIS":"545.695","NORAD_CAT_ID":"47775","OBJECT_ID":"2021-017BF","DECAY_DATE":null,"EPHEMERIS_TYPE":"0","GP_ID":"183926922","BSTAR":"0.00008890300000","MEAN_ELEMENT_THEORY":"SGP4","COUNTRY_CODE":"US","FILE":"3107096","REF_FRAME":"TEME","MEAN_MOTION_DOT":"0.00001043","LAUNCH_DATE":"2021-03-04","OBJECT_TYPE":"PAYLOAD","PERIOD":"95.592","ECCENTRICITY":"0.00022080","EPOCH":"2021-09-01T18:39:46.226304","SEMIMAJOR_AXIS":"6925.359","APOAPSIS":"548.753","TLE_LINE2":"2 47775  53.0558  68.3675 0002208  93.3304 266.7937 15.06396546 28967","ARG_OF_PERICENTER":"93.3304","CLASSIFICATION_TYPE":"U","INCLINATION":"53.0558","TLE_LINE1":"1 47775U 21017BF  21244.77761836  .00001043  00000-0  88903-4 0  9999","TIME_SYSTEM":"UTC","RCS_SIZE":"LARGE","MEAN_MOTION_DDOT":"0.0000000000000","OBJECT_NAME":"STARLINK-2198","SITE":"AFETR","CENTER_NAME":"EARTH","REV_AT_EPOCH":"2896","ELEMENT_SET_NO":"999","MEAN_MOTION":"15.06396546"},{"DECAY_DATE":null,"EPHEMERIS_TYPE":"0","NORAD_CAT_ID":"47776","OBJECT_ID":"2021-017BG","PERIAPSIS":"545.865","RA_OF_ASC_NODE":"57.9396","MEAN_ANOMALY":"277.5422","LAUNCH_DATE":"2021-03-04","MEAN_MOTION_DOT":"0.00001089","FILE":"3107096","REF_FRAME":"TEME","MEAN_ELEMENT_THEORY":"SGP4","COUNTRY_CODE":"US","BSTAR":"0.00009200100000","GP_ID":"183926672","APOAPSIS":"548.625","SEMIMAJOR_AXIS":"6925.380","ECCENTRICITY":"0.00019930","EPOCH":"2021-09-01T20:53:48.824736","PERIOD":"95.593","OBJECT_TYPE":"PAYLOAD","MEAN_MOTION":"15.06389738","SITE":"AFETR","CENTER_NAME":"EARTH","REV_AT_EPOCH":"2908","ELEMENT_SET_NO":"999","MEAN_MOTION_DDOT":"0.0000000000000","OBJECT_NAME":"STARLINK-2209","RCS_SIZE":"LARGE","INCLINATION":"53.0565","CLASSIFICATION_TYPE":"U","TIME_SYSTEM":"UTC","TLE_LINE1":"1 47776U 21017BG  21244.87070399  .00001089  00000-0  92001-4 0  9992","TLE_LINE2":"2 47776  53.0565  57.9396 0001993  82.5793 277.5422 15.06389738 29080","ARG_OF_PERICENTER":"82.5793"},{"RCS_SIZE":"LARGE","TLE_LINE2":"2 47777  53.0569  57.9265 0002019  92.0091 268.1130 15.06381876 29084","ARG_OF_PERICENTER":"92.0091","INCLINATION":"53.0569","CLASSIFICATION_TYPE":"U","TLE_LINE1":"1 47777U 21017BH  21244.87439963  .00000775  00000-0  70957-4 0  9996","TIME_SYSTEM":"UTC","MEAN_MOTION":"15.06381876","MEAN_MOTION_DDOT":"0.0000000000000","OBJECT_NAME":"STARLINK-2210","CENTER_NAME":"EARTH","SITE":"AFETR","ELEMENT_SET_NO":"999","REV_AT_EPOCH":"2908","ECCENTRICITY":"0.00020190","EPOCH":"2021-09-01T20:59:08.128032","OBJECT_TYPE":"PAYLOAD","PERIOD":"95.593","APOAPSIS":"548.667","SEMIMAJOR_AXIS":"6925.404","MEAN_ELEMENT_THEORY":"SGP4","COUNTRY_CODE":"US","GP_ID":"183927421","BSTAR":"0.00007095700000","LAUNCH_DATE":"2021-03-04","FILE":"3107096","REF_FRAME":"TEME","MEAN_MOTION_DOT":"0.00000775","PERIAPSIS":"545.871","MEAN_ANOMALY":"268.1130","RA_OF_ASC_NODE":"57.9265","DECAY_DATE":null,"EPHEMERIS_TYPE":"0","NORAD_CAT_ID":"47777","OBJECT_ID":"2021-017BH"},{"RCS_SIZE":"LARGE","INCLINATION":"53.0570","CLASSIFICATION_TYPE":"U","TIME_SYSTEM":"UTC","TLE_LINE1":"1 47778U 21017BJ  21244.84120739 -.00000314  00000-0 -22102-5 0  9993","TLE_LINE2":"2 47778  53.0570  58.2405 0001457 107.9886 252.1262 15.06395853 29078","ARG_OF_PERICENTER":"107.9886","MEAN_MOTION":"15.06395853","SITE":"AFETR","CENTER_NAME":"EARTH","REV_AT_EPOCH":"2907","ELEMENT_SET_NO":"999","MEAN_MOTION_DDOT":"0.0000000000000","OBJECT_NAME":"STARLINK-2211","ECCENTRICITY":"0.00014570","EPOCH":"2021-09-01T20:11:20.318496","OBJECT_TYPE":"PAYLOAD","PERIOD":"95.592","APOAPSIS":"548.235","SEMIMAJOR_AXIS":"6925.361","MEAN_ELEMENT_THEORY":"SGP4","COUNTRY_CODE":"US","BSTAR":"-0.00000221020000","GP_ID":"183928174","LAUNCH_DATE":"2021-03-04","MEAN_MOTION_DOT":"-0.00000314","FILE":"3107096","REF_FRAME":"TEME","PERIAPSIS":"546.217","RA_OF_ASC_NODE":"58.2405","MEAN_ANOMALY":"252.1262","DECAY_DATE":null,"EPHEMERIS_TYPE":"0","NORAD_CAT_ID":"47778","OBJECT_ID":"2021-017BJ"},{"COUNTRY_CODE":"US","MEAN_ELEMENT_THEORY":"SGP4","GP_ID":"183926423","BSTAR":"0.00006287500000","LAUNCH_DATE":"2021-03-04","REF_FRAME":"TEME","FILE":"3107096","MEAN_MOTION_DOT":"0.00000655","PERIAPSIS":"546.045","MEAN_ANOMALY":"280.5944","RA_OF_ASC_NODE":"58.2974","EPHEMERIS_TYPE":"0","DECAY_DATE":null,"OBJECT_ID":"2021-017BK","NORAD_CAT_ID":"47779","RCS_SIZE":"LARGE","ARG_OF_PERICENTER":"79.5244","TLE_LINE2":"2 47779  53.0557  58.2974 0001764  79.5244 280.5944 15.06382617 29074","TIME_SYSTEM":"UTC","TLE_LINE1":"1 47779U 21017BK  21244.78961700  .00000655  00000-0  62875-4 0  9994","INCLINATION":"53.0557","CLASSIFICATION_TYPE":"U","MEAN_MOTION":"15.06382617","OBJECT_NAME":"STARLINK-2212","MEAN_MOTION_DDOT":"0.0000000000000","ELEMENT_SET_NO":"999","REV_AT_EPOCH":"2907","SITE":"AFETR","CENTER_NAME":"EARTH","EPOCH":"2021-09-01T18:57:02.908800","ECCENTRICITY":"0.00017640","PERIOD":"95.593","OBJECT_TYPE":"PAYLOAD","APOAPSIS":"548.488","SEMIMAJOR_AXIS":"6925.402"},{"GP_ID":"183927172","BSTAR":"0.00005504600000","COUNTRY_CODE":"US","MEAN_ELEMENT_THEORY":"SGP4","REF_FRAME":"TEME","FILE":"3107096","MEAN_MOTION_DOT":"0.00000538","LAUNCH_DATE":"2021-03-04","MEAN_ANOMALY":"266.4474","RA_OF_ASC_NODE":"57.9916","PERIAPSIS":"545.911","OBJECT_ID":"2021-017BL","NORAD_CAT_ID":"47780","EPHEMERIS_TYPE":"0","DECAY_DATE":null,"ARG_OF_PERICENTER":"93.6735","TLE_LINE2":"2 47780  53.0563  57.9916 0001923  93.6735 266.4474 15.06390540 29114","TLE_LINE1":"1 47780U 21017BL  21244.85869184  .00000538  00000-0  55046-4 0  9999","TIME_SYSTEM":"UTC","INCLINATION":"53.0563","CLASSIFICATION_TYPE":"U","RCS_SIZE":"LARGE","OBJECT_NAME":"STARLINK-2213","MEAN_MOTION_DDOT":"0.0000000000000","ELEMENT_SET_NO":"999","REV_AT_EPOCH":"2911","SITE":"AFETR","CENTER_NAME":"EARTH","MEAN_MOTION":"15.06390540","PERIOD":"95.593","OBJECT_TYPE":"PAYLOAD","EPOCH":"2021-09-01T20:36:30.974976","ECCENTRICITY":"0.00019230","SEMIMAJOR_AXIS":"6925.378","APOAPSIS":"548.574"},{"MEAN_MOTION":"15.06386814","REV_AT_EPOCH":"2906","ELEMENT_SET_NO":"999","CENTER_NAME":"EARTH","SITE":"AFETR","OBJECT_NAME":"STARLINK-2223","MEAN_MOTION_DDOT":"0.0000000000000","RCS_SIZE":"LARGE","TLE_LINE1":"1 47781U 21017BM  21244.83384482  .00000765  00000-0  70248-4 0  9994","TIME_SYSTEM":"UTC","CLASSIFICATION_TYPE":"U","INCLINATION":"53.0563","ARG_OF_PERICENTER":"97.2239","TLE_LINE2":"2 47781  53.0563  58.1047 0001677  97.2239 262.8941 15.06386814 29060","APOAPSIS":"548.415","SEMIMAJOR_AXIS":"6925.389","EPOCH":"2021-09-01T20:00:44.192448","ECCENTRICITY":"0.00016770","PERIOD":"95.593","OBJECT_TYPE":"PAYLOAD","LAUNCH_DATE":"2021-03-04","MEAN_MOTION_DOT":"0.00000765","REF_FRAME":"TEME","FILE":"3107096","COUNTRY_CODE":"US","MEAN_ELEMENT_THEORY":"SGP4","BSTAR":"0.00007024800000","GP_ID":"183927921","EPHEMERIS_TYPE":"0","DECAY_DATE":null,"OBJECT_ID":"2021-017BM","NORAD_CAT_ID":"47781","PERIAPSIS":"546.093","RA_OF_ASC_NODE":"58.1047","MEAN_ANOMALY":"262.8941"},{"PERIAPSIS":"545.795","RA_OF_ASC_NODE":"98.0254","MEAN_ANOMALY":"291.5547","DECAY_DATE":null,"EPHEMERIS_TYPE":"0","NORAD_CAT_ID":"47787","OBJECT_ID":"2021-018A","MEAN_ELEMENT_THEORY":"SGP4","COUNTRY_CODE":"US","BSTAR":"0.00012885000000","GP_ID":"183927675","LAUNCH_DATE":"2021-03-11","MEAN_MOTION_DOT":"0.00001638","FILE":"3107096","REF_FRAME":"TEME","ECCENTRICITY":"0.00020530","EPOCH":"2021-09-01T20:27:14.963328","OBJECT_TYPE":"PAYLOAD","PERIOD":"95.592","APOAPSIS":"548.638","SEMIMAJOR_AXIS":"6925.351","RCS_SIZE":"LARGE","INCLINATION":"53.0559","CLASSIFICATION_TYPE":"U","TLE_LINE1":"1 47787U 21018A   21244.85225652  .00001638  00000-0  12885-3 0  9998","TIME_SYSTEM":"UTC","TLE_LINE2":"2 47787  53.0559  98.0254 0002053  68.5661 291.5547 15.06399071 27926","ARG_OF_PERICENTER":"68.5661","MEAN_MOTION":"15.06399071","CENTER_NAME":"EARTH","SITE":"AFETR","ELEMENT_SET_NO":"999","REV_AT_EPOCH":"2792","MEAN_MOTION_DDOT":"0.0000000000000","OBJECT_NAME":"STARLINK-2257"},{"MEAN_MOTION":"15.27720621","MEAN_MOTION_DDOT":"0.0000000000000","OBJECT_NAME":"STARLINK-2314","SITE":"AFETR","CENTER_NAME":"EARTH","REV_AT_EPOCH":"2821","ELEMENT_SET_NO":"999","RCS_SIZE":"LARGE","TLE_LINE2":"2 47788  53.0552  78.2867 0001366  59.5562 300.5571 15.27720621 28219","ARG_OF_PERICENTER":"59.5562","INCLINATION":"53.0552","CLASSIFICATION_TYPE":"U","TLE_LINE1":"1 47788U 21018B   21244.85192643  .00009983  00000-0  37596-3 0  9999","TIME_SYSTEM":"UTC","APOAPSIS":"483.567","SEMIMAJOR_AXIS":"6860.765","ECCENTRICITY":"0.00013660","EPOCH":"2021-09-01T20:26:46.443552","PERIOD":"94.258","OBJECT_TYPE":"PAYLOAD","LAUNCH_DATE":"2021-03-11","FILE":"3107096","REF_FRAME":"TEME","MEAN_MOTION_DOT":"0.00009983","MEAN_ELEMENT_THEORY":"SGP4","COUNTRY_CODE":"US","GP_ID":"183926923","BSTAR":"0.00037596000000","DECAY_DATE":null,"EPHEMERIS_TYPE":"0","NORAD_CAT_ID":"47788","OBJECT_ID":"2021-018B","PERIAPSIS":"481.693","MEAN_ANOMALY":"300.5571","RA_OF_ASC_NODE":"78.2867"}];
